OBJECT_NAME,OBJECT_ID,EPOCH,MEAN_MOTION,ECCENTRICITY,INCLINATION,RA_OF_ASC_NODE,ARG_OF_PERICENTER,MEAN_ANOMALY,EPHEMERIS_TYPE,CLASSIFICATION_TYPE,NORAD_CAT_ID,ELEMENT_SET_NO,REV_AT_EPOCH,BSTAR,MEAN_MOTION_DOT,MEAN_MOTION_DDOT
ONEWEB-0534,2023-029B,2026-07-21T04:02:54.517056,13.20770062,.00020467,87.9174,267.6957,100.7335,259.4029,0,U,55797,999,16563,.82563491E-4,.47E-6,0
ONEWEB-0556,2023-029C,2026-07-20T22:45:21.248640,13.20771831,.00014747,87.9166,267.7379,119.6617,240.4663,0,U,55798,999,16560,-.11281888E-3,-.33E-6,0
ONEWEB-0562,2023-029D,2026-07-21T03:53:13.175520,13.20772381,.00012114,87.9168,267.6766,91.5095,268.6177,0,U,55799,999,16563,-.7198485E-5,.1E-6,0
ONEWEB-0563,2023-029E,2026-07-21T03:45:57.328128,13.20769553,.00021421,87.9170,267.7080,104.3478,255.7893,0,U,55800,999,16562,.17686707E-4,.2E-6,0
ONEWEB-0564,2023-029F,2026-07-21T03:36:15.449184,13.20772561,.00016665,87.9169,267.6830,93.2462,266.8862,0,U,55801,999,16563,.15360674E-3,.75E-6,0
ONEWEB-0638,2023-029G,2026-07-21T04:32:40.583904,13.14504729,.0001519,87.8950,282.9741,108.1388,251.9908,0,U,55802,999,16386,-.15733895E-3,-.46E-6,0
ONEWEB-0639,2023-029H,2026-07-21T07:13:34.557888,13.19723789,.00028033,87.9183,298.1832,114.7766,245.3659,0,U,55803,999,16340,.65186609E-4,.39E-6,0
ONEWEB-0640,2023-029J,2026-07-20T17:48:44.270784,13.14503042,.00017379,87.8952,283.0541,119.4167,240.7137,0,U,55804,999,16382,.21599387E-3,.93E-6,0
ONEWEB-0641,2023-029K,2026-07-20T18:22:32.531520,13.19727130,.0002058,87.9193,298.2818,104.9589,255.1772,0,U,55805,999,16334,-.81614392E-4,-.2E-6,0
ONEWEB-0642,2023-029L,2026-07-21T05:10:46.090272,13.19727038,.0002804,87.9184,298.2015,108.7493,251.3944,0,U,55806,999,16339,.30012494E-3,.133E-5,0
ONEWEB-0643,2023-029M,2026-07-21T04:03:00.663552,13.14502894,.00027247,87.8952,282.9563,102.2257,257.9178,0,U,55807,999,16385,-.39040929E-3,-.132E-5,0
ONEWEB-0644,2023-029N,2026-07-20T19:58:04.248768,13.19725719,.00023734,87.9183,298.2787,104.2100,255.9297,0,U,55808,999,16334,.41308641E-4,.29E-6,0
ONEWEB-0645,2023-029P,2026-07-21T05:35:47.382720,13.19726310,.00021558,87.9183,298.1956,113.2582,246.8778,0,U,55809,999,16339,.21506991E-3,.99E-6,0
ONEWEB-0646,2023-029Q,2026-07-20T19:05:44.292192,13.19725082,.00022782,87.9183,298.2829,104.1398,255.9988,0,U,55810,999,16332,-.56349236E-3,-.213E-5,0
ONEWEB-0648,2023-029R,2026-07-21T03:17:19.954464,13.14503164,.00025978,87.8961,282.9399,119.7149,240.4240,0,U,55811,999,16385,.56663775E-3,.223E-5,0
ONEWEB-0649,2023-029S,2026-07-20T23:20:28.782240,13.19724165,.00021479,87.9183,298.2460,107.3505,252.7863,0,U,55812,999,16338,.97758323E-4,.52E-6,0
ONEWEB-0650,2023-029T,2026-07-20T19:35:18.737376,13.19724188,.00025773,87.9184,298.2794,108.1790,251.9624,0,U,55813,999,16333,-.10258611E-3,-.28E-6,0
ONEWEB-0652,2023-029U,2026-07-20T17:41:53.116512,13.14503106,.00019518,87.8960,283.0259,94.7561,265.3792,0,U,55814,999,16377,.39510514E-4,.27E-6,0
ONEWEB-0653,2023-029V,2026-07-21T04:16:42.145248,13.14502756,.00019608,87.8962,282.9364,99.6569,260.4783,0,U,55815,999,16386,-.43192246E-3,-.147E-5,0
ONEWEB-0654,2023-029W,2026-07-21T04:09:50.990112,13.14502404,.00017422,87.8961,282.9330,92.2414,267.8915,0,U,55816,999,16388,-.44023097E-3,-.15E-5,0
ONEWEB-0656,2023-029X,2026-07-21T03:26:33.832896,13.20770512,.000178,87.9180,267.6643,87.9773,272.1564,0,U,55817,999,16563,.14639805E-3,.73E-6,0
ONEWEB-0657,2023-029Y,2026-07-20T19:28:31.015776,13.19727382,.0002006,87.9183,298.2787,77.2131,282.9226,0,U,55818,999,16334,.617874E-6,.13E-6,0
ONEWEB-0658,2023-029Z,2026-07-20T19:21:40.469760,13.19726227,.00023886,87.9193,298.2582,104.3397,255.8001,0,U,55819,999,16335,-.651501E-4,-.13E-6,0
ONEWEB-0660,2023-029AA,2026-07-21T03:37:53.152896,13.14502229,.00020118,87.8972,282.9338,109.0525,251.0823,0,U,55820,999,16386,.25348482E-3,.107E-5,0
ONEWEB-0661,2023-029AB,2026-07-20T22:59:17.909088,13.14502885,.00018664,87.8950,283.0117,107.8048,252.3286,0,U,55821,999,16382,-.35393965E-3,-.118E-5,0
ONEWEB-0662,2023-029AC,2026-07-21T03:28:45.808896,13.14502698,.00020317,87.8954,282.9796,109.1378,250.9972,0,U,55822,999,16389,.62536304E-3,.245E-5,0
ONEWEB-0663,2023-029AD,2026-07-21T02:22:20.856864,13.20871890,.00022549,87.9182,267.7440,108.2422,251.8956,0,U,55823,999,16562,-.80559977E-4,-.2E-6,0
ONEWEB-0664,2023-029AE,2026-07-21T03:07:10.705728,13.20772397,.00016866,87.9165,267.7148,105.9491,254.1829,0,U,55824,999,16562,.10680013E-3,.56E-6,0
ONEWEB-0665,2023-029AF,2026-07-21T04:23:33.802368,13.14502663,.00021081,87.8950,282.9473,107.8844,252.2515,0,U,55825,999,16387,-.41387999E-3,-.141E-5,0
ONEWEB-0666,2023-029AG,2026-07-21T02:57:27.416736,13.20769924,.0002355,87.9166,267.7064,80.8028,279.3372,0,U,55826,999,16563,.9710494E-4,.52E-6,0
