ONEWEB-0534             
1 55797U 23029B   26202.16868654  .00000047  00000+0  82563-4 0  9993
2 55797  87.9174 267.6957 0002046 100.7335 259.4029 13.20770062165634
ONEWEB-0556             
1 55798U 23029C   26201.94816260 -.00000033  00000+0 -11282-3 0  9991
2 55798  87.9166 267.7379 0001474 119.6617 240.4663 13.20771831165607
ONEWEB-0562             
1 55799U 23029D   26202.16195805  .00000010  00000+0 -71985-5 0  9994
2 55799  87.9168 267.6766 0001211  91.5095 268.6177 13.20772381165632
ONEWEB-0563             
1 55800U 23029E   26202.15691352  .00000020  00000+0  17687-4 0  9992
2 55800  87.9170 267.7080 0002142 104.3478 255.7893 13.20769553165628
ONEWEB-0564             
1 55801U 23029F   26202.15017881  .00000075  00000+0  15361-3 0  9998
2 55801  87.9169 267.6830 0001666  93.2462 266.8862 13.20772561165631
ONEWEB-0638             
1 55802U 23029G   26202.18935861 -.00000046  00000+0 -15734-3 0  9993
2 55802  87.8950 282.9741 0001519 108.1388 251.9908 13.14504729163861
ONEWEB-0639             
1 55803U 23029H   26202.30109442  .00000039  00000+0  65187-4 0  9994
2 55803  87.9183 298.1832 0002803 114.7766 245.3659 13.19723789163405
ONEWEB-0640             
1 55804U 23029J   26201.74217906  .00000093  00000+0  21599-3 0  9995
2 55804  87.8952 283.0541 0001737 119.4167 240.7137 13.14503042163820
ONEWEB-0641             
1 55805U 23029K   26201.76565430 -.00000020  00000+0 -81614-4 0  9993
2 55805  87.9193 298.2818 0002058 104.9589 255.1772 13.19727130163341
ONEWEB-0642             
1 55806U 23029L   26202.21581123  .00000133  00000+0  30012-3 0  9990
2 55806  87.9184 298.2015 0002804 108.7493 251.3944 13.19727038163397
ONEWEB-0643             
1 55807U 23029M   26202.16875768 -.00000132  00000+0 -39041-3 0  9998
2 55807  87.8952 282.9563 0002724 102.2257 257.9178 13.14502894163854
ONEWEB-0644             
1 55808U 23029N   26201.83199362  .00000029  00000+0  41309-4 0  9995
2 55808  87.9183 298.2787 0002373 104.2100 255.9297 13.19725719163341
ONEWEB-0645             
1 55809U 23029P   26202.23318730  .00000099  00000+0  21507-3 0  9997
2 55809  87.9183 298.1956 0002155 113.2582 246.8778 13.19726310163397
ONEWEB-0646             
1 55810U 23029Q   26201.79565153 -.00000213  00000+0 -56349-3 0  9994
2 55810  87.9183 298.2829 0002278 104.1398 255.9988 13.19725082163321
ONEWEB-0648             
1 55811U 23029R   26202.13703651  .00000223  00000+0  56664-3 0  9990
2 55811  87.8961 282.9399 0002597 119.7149 240.4240 13.14503164163855
ONEWEB-0649             
1 55812U 23029S   26201.97255535  .00000052  00000+0  97758-4 0  9995
2 55812  87.9183 298.2460 0002147 107.3505 252.7863 13.19724165163388
ONEWEB-0650             
1 55813U 23029T   26201.81618909 -.00000028  00000+0 -10259-3 0  9992
2 55813  87.9184 298.2794 0002577 108.1790 251.9624 13.19724188163338
ONEWEB-0652             
1 55814U 23029U   26201.73742033  .00000027  00000+0  39511-4 0  9990
2 55814  87.8960 283.0259 0001951  94.7561 265.3792 13.14503106163772
ONEWEB-0653             
1 55815U 23029V   26202.17826557 -.00000147  00000+0 -43192-3 0  9998
2 55815  87.8962 282.9364 0001960  99.6569 260.4783 13.14502756163868
ONEWEB-0654             
1 55816U 23029W   26202.17350683 -.00000150  00000+0 -44023-3 0  9999
2 55816  87.8961 282.9330 0001742  92.2414 267.8915 13.14502404163887
ONEWEB-0656             
1 55817U 23029X   26202.14344714  .00000073  00000+0  14640-3 0  9999
2 55817  87.9180 267.6643 0001780  87.9773 272.1564 13.20770512165638
ONEWEB-0657             
1 55818U 23029Y   26201.81147009  .00000013  00000+0  61787-6 0  9992
2 55818  87.9183 298.2787 0002006  77.2131 282.9226 13.19727382163348
ONEWEB-0658             
1 55819U 23029Z   26201.80671840 -.00000013  00000+0 -65150-4 0  9995
2 55819  87.9193 298.2582 0002388 104.3397 255.8001 13.19726227163350
ONEWEB-0660             
1 55820U 23029AA  26202.15130964  .00000107  00000+0  25348-3 0  9999
2 55820  87.8972 282.9338 0002011 109.0525 251.0823 13.14502229163868
ONEWEB-0661             
1 55821U 23029AB  26201.95784617 -.00000118  00000+0 -35394-3 0  9993
2 55821  87.8950 283.0117 0001866 107.8048 252.3286 13.14502885163826
ONEWEB-0662             
1 55822U 23029AC  26202.14497464  .00000245  00000+0  62536-3 0  9994
2 55822  87.8954 282.9796 0002031 109.1378 250.9972 13.14502698163893
ONEWEB-0663             
1 55823U 23029AD  26202.09885251 -.00000020  00000+0 -80560-4 0  9995
2 55823  87.9182 267.7440 0002254 108.2422 251.8956 13.20871890165627
ONEWEB-0664             
1 55824U 23029AE  26202.12998502  .00000056  00000+0  10680-3 0  9996
2 55824  87.9165 267.7148 0001686 105.9491 254.1829 13.20772397165629
ONEWEB-0665             
1 55825U 23029AF  26202.18303012 -.00000141  00000+0 -41388-3 0  9995
2 55825  87.8950 282.9473 0002108 107.8844 252.2515 13.14502663163870
ONEWEB-0666             
1 55826U 23029AG  26202.12323399  .00000052  00000+0  97105-4 0  9998
2 55826  87.9166 267.7064 0002355  80.8028 279.3372 13.20769924165635
